ONEWEB-0338             
1 49204U 21083U   23237.68852864  .00000201  00000+0  46311-3 0  9997
2 49204  87.9220 118.8394 0002173  91.1289 269.0093 13.20770019101311
ONEWEB-0339             
1 49205U 21083V   23237.86217917 -.00000308  00000+0 -87901-3 0  9992
2 49205  87.9088 164.3909 0002263  78.3767 281.7616 13.13470372 96169
ONEWEB-0340             
1 49206U 21083W   23237.90398553  .00000108  00000+0  24126-3 0  9990
2 49206  87.9219 179.5583 0002099  78.4729 281.6639 13.18683481 94713
ONEWEB-0341             
1 49207U 21083X   23237.83655053 -.00000489  00000+0 -12735-2 0  9990
2 49207  87.9301 179.5041 0002871  73.2075 286.9372 13.18681878 94721
ONEWEB-0342             
1 49208U 21083Y   23237.69483336 -.00000020  00000+0 -82074-4 0  9994
2 49208  87.9211 118.8730 0001918  86.9024 273.2329 13.20768613101286
ONEWEB-0343             
1 49209U 21083Z   23237.83232470  .00000011  00000+0 -36793-5 0  9999
2 49209  87.9288 179.5402 0003161  78.0116 282.1370 13.18688133 94772
ONEWEB-0344             
1 49210U 21083AA  23237.82724804  .00001063  00000+0  28764-2 0  9990
2 49210  87.9090 164.4038 0002507  92.2289 267.9127 13.13465152 96160
ONEWEB-0345             
1 49211U 21083AB  23237.84526216  .00000093  00000+0  21887-3 0  9992
2 49211  87.9088 164.3868 0002395  61.3583 298.7787 13.13468591 96172
